STARLINK-37085          
1 68252U 26054W   26087.83335647  .00062588  00000+0  31915-3 0  9992
2 68252  53.1593 216.5590 0001123 111.1952 253.0401 15.80817909  2999
STARLINK-37086          
1 68253U 26054X   26087.83335647  .00101298  00000+0  51213-3 0  9998
2 68253  53.1592 216.5508 0001218  93.4602 275.0265 15.80814568  2997
STARLINK-37084          
1 68254U 26054Y   26087.83335647  .00027794  00000+0  14413-3 0  9998
2 68254  53.1592 216.5330 0001038  99.0370 278.0057 15.80839201  2998
STARLINK-37075          
1 68255U 26054Z   26087.83335647  .00049569  00000+0  25360-3 0  9996
2 68255  53.1592 216.5417 0000959  82.5408 290.2108 15.80841483  2993
STARLINK-36333          
1 68256U 26054AA  26087.83335647  .00090767  00000+0  45951-3 0  9991
2 68256  53.1591 216.5241 0001045  63.7223 317.5737 15.80829417  3031
STARLINK-36745          
1 68257U 26054AB  26087.83335647  .00026391  00000+0  13692-3 0  9991
2 68257  53.1592 216.5059 0001458  64.0507 325.7577 15.80860719  2994
STARLINK-36890          
1 68258U 26054AC  26087.83335647  .00068091  00000+0  34628-3 0  9997
2 68258  53.1590 216.4976 0001296  63.7484 330.3569 15.80843090  2996
STARLINK-36323          
1 68259U 26054AD  26087.83335647  .00021019  00000+0  10990-3 0  9993
2 68259  53.1590 216.5153 0001208  78.4932 307.0851 15.80847321  3031
STARLINK-37056          
1 68260U 26054AE  26087.83335647  .00196343  00000+0  97927-3 0  9993
2 68260  53.1590 216.4885 0001425  77.6967 320.6922 15.80796928  2994
TEN-KOH 2               
1 68261U 25241B   26087.71907339  .00009978  00000+0  43516-3 0  9993
2 68261  51.6385 342.3896 0004458 225.1685 134.8931 15.22741984  2642
STARLINK-37162          
1 68262U 26055A   26087.83335647 -.01087597  36793-3 -26974-2 0  9994
2 68262  53.1581 241.6872 0000709  55.3988 346.5823 15.95233118  2712
STARLINK-37156          
1 68263U 26055B   26087.83335647 -.01093995  37221-3 -27000-2 0  9992
2 68263  53.1580 241.6824 0000850  54.2191 350.2511 15.95324745  2713
